NUSAT-1 (FRESCO)        
1 41557U 16033B   21317.19352476  .00003919  00000-0  13533-3 0  9996
2 41557  97.3931  50.3763 0014005  70.2237 347.1046 15.30456464304270
BEESAT-4                
1 41619U 16040W   21316.72490844  .00003535  00000-0  13766-3 0  9995
2 41619  97.2515   8.5912 0010958 158.5443 201.6257 15.26568626287625
CAS-2T & KS-1Q          
1 41847U 16066G   21317.14699093  .00000215  00000-0  41663-4 0  9990
2 41847  98.5833  16.7607 0365753 136.3308 226.7446 14.38282568263258
NAYIF-1 (EO-88)         
1 42017U 17008BX  21316.75953788  .00004039  00000-0  14440-3 0  9997
2 42017  97.3001  21.6657 0004401 312.4740  47.6128 15.29370001263910
ZHUHAI-1 02 (CAS-4B)    
1 42759U 17034B   21317.10947434  .00001085  00000-0  77909-4 0  9998
2 42759  43.0167  83.6562 0008423   4.1240 164.6191 15.10535106243620
ZHUHAI-1 01 (CAS-4A)    
1 42761U 17034D   21317.09185895  .00001209  00000-0  85063-4 0  9992
2 42761  43.0170  82.6994 0008796   5.9980 162.8317 15.10622529243624
MAX VALIER SAT          
1 42778U 17036P   21317.09772985  .00001897  00000-0  80354-4 0  9995
2 42778  97.2378   0.7407 0012006  20.3394 339.8320 15.24282444243928
RADFXSAT (FOX-1B)       
1 43017U 17073E   21317.17010158  .00000817  00000-0  67616-4 0  9996
2 43017  97.6926 215.1673 0253671 174.6453 185.7570 14.79941117215112
FOX-1D (AO-92)          
1 43137U 18004AC  21316.89641693  .00002430  00000-0  97112-4 0  9993
2 43137  97.3940  29.3627 0009788  54.6464 305.5688 15.26048729213298
DIWATA-2B               
1 43678U 18084H   21317.15884118 -.00000059  00000-0 -15331-7 0  9995
2 43678  97.9438  83.3817 0008444 282.1706  77.8572 14.91828692165600
ES'HAIL 2               
1 43700U 18090A   21316.91252869  .00000138  00000-0  00000-0 0  9999
2 43700   0.0030  87.5424 0002307 164.1778 154.8465  1.00272862 10850
FOX-1CLIFF (AO-95)      
1 43770U 18099N   21316.92915107  .00000909  00000-0  87077-4 0  9996
2 43770  97.6499  23.7293 0012956 281.7319  78.2448 14.95536452160641
ITASAT 1                
1 43786U 18099AE  21317.15485114  .00000603  00000-0  59069-4 0  9990
2 43786  97.6526  24.7309 0013486 273.7399  86.2280 14.95806213160712
JY1SAT (JO-97)          
1 43803U 18099AX  21317.15926862  .00000477  00000-0  47470-4 0  9992
2 43803  97.6488  24.4739 0013466 273.4354  86.5327 14.96098513160722
UWE-4                   
1 43880U 18111E   21316.97591774  .00000492  00000-0  47616-4 0  9990
2 43880  97.6775 222.0941 0011593 334.6043  25.4607 14.97120272155301
NEXUS (FO-99)           
1 43937U 19003F   21316.83211485  .00002815  00000-0  10925-3 0  9990
2 43937  97.1604 354.0064 0021920 201.7037 158.3275 15.26682628156897
PSAT2 (NO-104)          
1 44354U 19036R   21316.87202905  .00026626  00000-0  32522-3 0  9994
2 44354  28.5236 213.6420 0301743  91.4857 272.0319 15.19925427131518
BRICSAT2 (NO-103)       
1 44355U 19036S   21316.88999844  .00059140 -56347-5  49751-3 0  9991
2 44355  28.5246 139.0387 0208806 213.0049 145.7364 15.44748748132271
JAISAT-1                
1 44419U 19038F   21316.87967469  .00001746  00000-0  98244-4 0  9991
2 44419  97.6084 281.2387 0021345 155.8496 204.3741 15.14423482130258
DUCHIFAT-3              
1 44854U 19089C   21317.20860838  .00001248  00000-0  10524-3 0  9991
2 44854  36.9664 300.7738 0008853 267.8467  92.1233 14.99789049105447
CAS-6 (TO-108)          
1 44881U 19093C   21317.19334714  .00000236  00000-0  36831-4 0  9999
2 44881  97.9140  34.3218 0015436 164.0941 196.0767 14.81509553102754
RS-44 & BREEZE-KM R/B   
1 44909U 19096E   21316.86137935  .00000010  00000-0 -11184-4 0  9997
2 44909  82.5243  14.2004 0218476 106.1052 256.4221 12.79711199 87808
ORBITAL FACTORY 2 (OF-2)
1 45113U 19071C   21316.96279814  .00005947  00000-0  16928-3 0  9995
2 45113  51.6425  36.7041 0011463 108.1176 252.1057 15.37510092100005
HUSKYSAT-1 (HO-107)     
1 45119U 19071J   21317.10677669  .00005158  00000-0  14880-3 0  9997
2 45119  51.6421  35.4053 0011061 105.1805 255.0402 15.37396938100025
BY70-2                  
1 45857U 20042B   21317.18651837  .00002417  00000-0  34531-3 0  9993
2 45857  97.9749  31.3607 0012196  96.9635 263.2934 14.77560241 73504
SALSAT                  
1 46495U 20068K   21316.93695685  .00000234  00000-0  21652-4 0  9997
2 46495  97.7042 253.6440 0015071 294.0121  65.9522 15.03660632 61644
BY70-3                  
1 46839U 20079N   21317.21126095  .00006036  00000-0  17880-3 0  9990
2 46839  97.2266  28.1245 0008037  43.2100  44.2227 15.35198955 57019
RADFXSAT-2 (AO-109)     
1 47311U 21002C   21316.89737485  .00002357  00000-0  11134-3 0  9995
2 47311  60.6855  95.2548 0037770 123.1417 237.3304 15.22382710 45466
UVSQ-SAT                
1 47438U 21006AB  21316.88954333  .00001490  00000-0  86501-4 0  9999
2 47438  97.4699  15.3481 0011319 309.9908  50.0329 15.13620411 44503
DIY-1 (ARDUIQUBE)       
1 47963U 21022AH  21316.69692327  .00003122  00000-0  20435-3 0  9998
2 47963  97.5445 216.3740 0019526 152.8907 207.3346 15.08324251 34231
